data = [
    {
        'station': 'EICK', 
        'valid': '2011-08-23 19:30', 
        'date': '2011-08-23',
        'lon': -8.4794, 
        'lat': 51.8481, 
        'tmpf': 55.6, 
        'dwpf': 46.4, 
        'relh': 76.5, 
        'drct': 180.0, 
        'sknt': 4.0, 
        'p01i': None, 
        'alti': 30.06, 
        'mslp': None, 
        'vsby': 6.21, 
        'gust': -99.0, 
        'skyc1': 'FEW', 
        'skyc2': 'SCT', 
        'skyc3': None, 
        'skyc4': None, 
        'skyl1': 1800.0, 
        'skyl2': 4400.0, 
        'skyl3': None, 
        'skyl4': None, 
        'wxcodes': None, 
        'ice_accretion_1hr': None, 
        'ice_accretion_3hr': None, 
        'ice_accretion_6hr': None, 
        'peak_wind_gust': None, 
        'peak_wind_drct': None, 
        'peak_wind_time': None, 
        'feel': 53.6, 
        'metar': 'EICK 221930Z 18004KT 9999 FEW018 SCT044 12/08 Q1018 NOSIG'
    },
    {
        'station': 'EICK', 
        'valid': '2011-08-24 19:30', 
        'date': '2011-08-24',
        'lon': -8.4794, 
        'lat': 51.8481, 
        'tmpf': 50.6, 
        'dwpf': 46.4, 
        'relh': 76.5, 
        'drct': 180.0, 
        'sknt': 4.0, 
        'p01i': None, 
        'alti': 30.06, 
        'mslp': None, 
        'vsby': 6.21, 
        'gust': -99.0, 
        'skyc1': 'FEW', 
        'skyc2': 'SCT', 
        'skyc3': None, 
        'skyc4': None, 
        'skyl1': 1800.0, 
        'skyl2': 4400.0, 
        'skyl3': None, 
        'skyl4': None, 
        'wxcodes': None, 
        'ice_accretion_1hr': None, 
        'ice_accretion_3hr': None, 
        'ice_accretion_6hr': None, 
        'peak_wind_gust': None, 
        'peak_wind_drct': None, 
        'peak_wind_time': None, 
        'feel': 53.6, 
        'metar': 'EICK 221930Z 18004KT 9999 FEW018 SCT044 12/08 Q1018 NOSIG'
    },
    {
        'station': 'EICK', 
        'valid': '2011-08-25 19:30', 
        'date': '2011-08-25',
        'lon': -8.4794, 
        'lat': 51.8481, 
        'tmpf': 60.2, 
        'dwpf': 46.4, 
        'relh': 76.5, 
        'drct': 180.0, 
        'sknt': 4.0, 
        'p01i': None, 
        'alti': 30.06, 
        'mslp': None, 
        'vsby': 6.21, 
        'gust': -99.0, 
        'skyc1': 'FEW', 
        'skyc2': 'SCT', 
        'skyc3': None, 
        'skyc4': None, 
        'skyl1': 1800.0, 
        'skyl2': 4400.0, 
        'skyl3': None, 
        'skyl4': None, 
        'wxcodes': None, 
        'ice_accretion_1hr': None, 
        'ice_accretion_3hr': None, 
        'ice_accretion_6hr': None, 
        'peak_wind_gust': None, 
        'peak_wind_drct': None, 
        'peak_wind_time': None, 
        'feel': 53.6, 
        'metar': 'EICK 221930Z 18004KT 9999 FEW018 SCT044 12/08 Q1018 NOSIG'
    },
]
